{
  "type": "FeatureCollection",
  "features": [
    {
      "type": "Feature",
      "properties": {
        "norad_id": 29975,
        "name": "FENGYUN 1C DEB",
        "group": "fengyun-1c-debris",
        "lat": 6.659368192253635,
        "lon": 38.48690348962083,
        "alt_km": 827.5582829146579,
        "timestamp": "2025-12-24T07:45:06.472492+00:00",
        "meta_object_name": "FENGYUN 1C DEB",
        "meta_object_id": "1999-025KZ",
        "meta_epoch": "2025-12-23T01:05:56.198976",
        "meta_mean_motion": 13.980283,
        "meta_eccentricity": 0.01131039,
        "meta_inclination": 99.3377,
        "meta_ra_of_asc_node": 38.2887,
        "meta_arg_of_pericenter": 345.7426,
        "meta_mean_anomaly": 76.0318,
        "meta_ephemeris_type": 0,
        "meta_classification_type": "U",
        "meta_norad_cat_id": 29975,
        "meta_element_set_no": 999,
        "meta_rev_at_epoch": 96581,
        "meta_bstar": 0.0001469985,
        "meta_mean_motion_dot": 1.74e-06,
        "meta_mean_motion_ddot": 0,
        "tle_line1": "1 29975U 99025KZ  25357.04578934  .00000174  00000+0  14700-3 0  9995",
        "tle_line2": "2 29975  99.3377  38.2887 0113103 345.7426  76.0318 13.98028300965816"
      },
      "geometry": {
        "type": "Point",
        "coordinates": [
          38.48690348962083,
          6.659368192253635
        ]
      }
    },
    {
      "type": "Feature",
      "properties": {
        "norad_id": 29976,
        "name": "FENGYUN 1C DEB",
        "group": "fengyun-1c-debris",
        "lat": -5.063195511432742,
        "lon": 174.5233939295889,
        "alt_km": 723.0064656135246,
        "timestamp": "2025-12-24T07:45:06.472502+00:00",
        "meta_object_name": "FENGYUN 1C DEB",
        "meta_object_id": "1999-025LA",
        "meta_epoch": "2025-12-23T17:58:36.340608",
        "meta_mean_motion": 13.98124568,
        "meta_eccentricity": 0.02675183,
        "meta_inclination": 98.9196,
        "meta_ra_of_asc_node": 354.7621,
        "meta_arg_of_pericenter": 208.981,
        "meta_mean_anomaly": 329.8751,
        "meta_ephemeris_type": 0,
        "meta_classification_type": "U",
        "meta_norad_cat_id": 29976,
        "meta_element_set_no": 999,
        "meta_rev_at_epoch": 96490,
        "meta_bstar": 0.00045081351,
        "meta_mean_motion_dot": 8.26e-06,
        "meta_mean_motion_ddot": 0,
        "tle_line1": "1 29976U 99025LA  25357.74903172  .00000826  00000+0  45081-3 0  9999",
        "tle_line2": "2 29976  98.9196 354.7621 0267518 208.9810 329.8751 13.98124568964902"
      },
      "geometry": {
        "type": "Point",
        "coordinates": [
          174.5233939295889,
          -5.063195511432742
        ]
      }
    },
    {
      "type": "Feature",
      "properties": {
        "norad_id": 29977,
        "name": "FENGYUN 1C DEB",
        "group": "fengyun-1c-debris",
        "lat": 47.6670366764445,
        "lon": -149.81357929951486,
        "alt_km": 964.6017400861474,
        "timestamp": "2025-12-24T07:45:06.472512+00:00",
        "meta_object_name": "FENGYUN 1C DEB",
        "meta_object_id": "1999-025LB",
        "meta_epoch": "2025-12-15T02:05:24.079200",
        "meta_mean_motion": 14.0509794,
        "meta_eccentricity": 0.0128352,
        "meta_inclination": 98.3968,
        "meta_ra_of_asc_node": 210.9629,
        "meta_arg_of_pericenter": 250.2626,
        "meta_mean_anomaly": 265.3537,
        "meta_ephemeris_type": 0,
        "meta_classification_type": "U",
        "meta_norad_cat_id": 29977,
        "meta_element_set_no": 999,
        "meta_rev_at_epoch": 96393,
        "meta_bstar": 0.001211704,
        "meta_mean_motion_dot": 2.064e-05,
        "meta_mean_motion_ddot": 0,
        "tle_line1": "1 29977U 99025LB  25349.08708425  .00002064  00000+0  12117-2 0  9991",
        "tle_line2": "2 29977  98.3968 210.9629 0128352 250.2626 265.3537 14.05097940963932"
      },
      "geometry": {
        "type": "Point",
        "coordinates": [
          -149.81357929951486,
          47.6670366764445
        ]
      }
    },
    {
      "type": "Feature",
      "properties": {
        "norad_id": 29978,
        "name": "FENGYUN 1C DEB",
        "group": "fengyun-1c-debris",
        "lat": 67.7034307887803,
        "lon": -108.52185249125347,
        "alt_km": 900.6104877453972,
        "timestamp": "2025-12-24T07:45:06.472523+00:00",
        "meta_object_name": "FENGYUN 1C DEB",
        "meta_object_id": "1999-025LC",
        "meta_epoch": "2025-12-23T02:07:38.526240",
        "meta_mean_motion": 13.959114,
        "meta_eccentricity": 0.00764178,
        "meta_inclination": 99.0599,
        "meta_ra_of_asc_node": 47.3656,
        "meta_arg_of_pericenter": 24.1226,
        "meta_mean_anomaly": 5.8393,
        "meta_ephemeris_type": 0,
        "meta_classification_type": "U",
        "meta_norad_cat_id": 29978,
        "meta_element_set_no": 999,
        "meta_rev_at_epoch": 96461,
        "meta_bstar": 0.0002130439,
        "meta_mean_motion_dot": 2.55e-06,
        "meta_mean_motion_ddot": 0,
        "tle_line1": "1 29978U 99025LC  25357.08864035  .00000255  00000+0  21304-3 0  9990",
        "tle_line2": "2 29978  99.0599  47.3656 0076417  24.1226   5.8393 13.95911400964618"
      },
      "geometry": {
        "type": "Point",
        "coordinates": [
          -108.52185249125347,
          67.7034307887803
        ]
      }
    },
    {
      "type": "Feature",
      "properties": {
        "norad_id": 29979,
        "name": "FENGYUN 1C DEB",
        "group": "fengyun-1c-debris",
        "lat": -62.11641736396631,
        "lon": 37.171207587515205,
        "alt_km": 888.1122617648125,
        "timestamp": "2025-12-24T07:45:06.472533+00:00",
        "meta_object_name": "FENGYUN 1C DEB",
        "meta_object_id": "1999-025LD",
        "meta_epoch": "2025-12-23T23:54:58.582368",
        "meta_mean_motion": 14.25986193,
        "meta_eccentricity": 0.01080307,
        "meta_inclination": 98.3694,
        "meta_ra_of_asc_node": 20.7044,
        "meta_arg_of_pericenter": 130.0748,
        "meta_mean_anomaly": 291.3648,
        "meta_ephemeris_type": 0,
        "meta_classification_type": "U",
        "meta_norad_cat_id": 29979,
        "meta_element_set_no": 999,
        "meta_rev_at_epoch": 98234,
        "meta_bstar": 0.00037905045,
        "meta_mean_motion_dot": 9.21e-06,
        "meta_mean_motion_ddot": 0,
        "tle_line1": "1 29979U 99025LD  25357.99651137  .00000921  00000+0  37905-3 0  9992",
        "tle_line2": "2 29979  98.3694  20.7044 0108030 130.0748 291.3648 14.25986193982346"
      },
      "geometry": {
        "type": "Point",
        "coordinates": [
          37.171207587515205,
          -62.11641736396631
        ]
      }
    },
    {
      "type": "Feature",
      "properties": {
        "norad_id": 29980,
        "name": "FENGYUN 1C DEB",
        "group": "fengyun-1c-debris",
        "lat": 52.54882480370124,
        "lon": -1.8260264341641685,
        "alt_km": 864.5311025623669,
        "timestamp": "2025-12-24T07:45:06.472543+00:00",
        "meta_object_name": "FENGYUN 1C DEB",
        "meta_object_id": "1999-025LE",
        "meta_epoch": "2025-12-23T23:11:22.769664",
        "meta_mean_motion": 14.06323319,
        "meta_eccentricity": 0.00871688,
        "meta_inclination": 98.5517,
        "meta_ra_of_asc_node": 166.508,
        "meta_arg_of_pericenter": 215.7781,
        "meta_mean_anomaly": 266.5957,
        "meta_ephemeris_type": 0,
        "meta_classification_type": "U",
        "meta_norad_cat_id": 29980,
        "meta_element_set_no": 999,
        "meta_rev_at_epoch": 97150,
        "meta_bstar": 5.8521887e-05,
        "meta_mean_motion_dot": 5.9e-07,
        "meta_mean_motion_ddot": 0,
        "tle_line1": "1 29980U 99025LE  25357.96623576  .00000059  00000+0  58522-4 0  9998",
        "tle_line2": "2 29980  98.5517 166.5080 0087168 215.7781 266.5957 14.06323319971506"
      },
      "geometry": {
        "type": "Point",
        "coordinates": [
          -1.8260264341641685,
          52.54882480370124
        ]
      }
    },
    {
      "type": "Feature",
      "properties": {
        "norad_id": 29982,
        "name": "FENGYUN 1C DEB",
        "group": "fengyun-1c-debris",
        "lat": 3.5723602491281308,
        "lon": 1.878745172414632,
        "alt_km": 652.4130777168884,
        "timestamp": "2025-12-24T07:45:06.472553+00:00",
        "meta_object_name": "FENGYUN 1C DEB",
        "meta_object_id": "1999-025LG",
        "meta_epoch": "2025-12-23T11:32:42.177408",
        "meta_mean_motion": 14.66960028,
        "meta_eccentricity": 0.01216971,
        "meta_inclination": 99.4015,
        "meta_ra_of_asc_node": 180.3216,
        "meta_arg_of_pericenter": 255.444,
        "meta_mean_anomaly": 158.3477,
        "meta_ephemeris_type": 0,
        "meta_classification_type": "U",
        "meta_norad_cat_id": 29982,
        "meta_element_set_no": 999,
        "meta_rev_at_epoch": 441,
        "meta_bstar": 0.00060987081,
        "meta_mean_motion_dot": 3.744e-05,
        "meta_mean_motion_ddot": 0,
        "tle_line1": "1 29982U 99025LG  25357.48104372  .00003744  00000+0  60987-3 0  9996",
        "tle_line2": "2 29982  99.4015 180.3216 0121697 255.4440 158.3477 14.66960028  4417"
      },
      "geometry": {
        "type": "Point",
        "coordinates": [
          1.878745172414632,
          3.5723602491281308
        ]
      }
    }
  ]
}